STARLINK-1825
1 26722C 20073BE  21325.16457829  .00002601  00000-0  17431-3 0  3259
2 26722  53.0535 102.4843 0001257  84.2239 205.0615 15.06390030    16
